OBJECT_NAME,OBJECT_ID,EPOCH,MEAN_MOTION,ECCENTRICITY,INCLINATION,RA_OF_ASC_NODE,ARG_OF_PERICENTER,MEAN_ANOMALY,EPHEMERIS_TYPE,CLASSIFICATION_TYPE,NORAD_CAT_ID,ELEMENT_SET_NO,REV_AT_EPOCH,BSTAR,MEAN_MOTION_DOT,MEAN_MOTION_DDOT
YAMAL 401,2014-082A,2026-07-02T21:15:15.463296,1.00270681,.000053,0.0147,40.9520,42.3804,246.3476,0,U,40345,999,4207,0,0,0
ASTRA 2G,2014-089A,2026-07-02T20:31:19.788096,1.00270220,.0004949,0.0458,351.2409,82.0414,183.6431,0,U,40364,999,4212,0,.161E-5,0
FENGYUN 2G,2014-090A,2026-07-02T21:05:55.223232,1.00266634,.0003609,5.6767,72.6316,150.3036,114.0182,0,U,40367,999,4215,0,-.293E-5,0
MUOS-3,2015-002A,2026-07-02T19:02:25.403712,1.00270501,.0052796,4.5502,43.5870,177.6484,329.7127,0,U,40374,999,4174,0,-.12E-5,0
INMARSAT 5-F2,2015-005A,2026-07-02T10:17:54.063744,1.00275452,.0000621,0.0184,20.4389,74.6010,284.8989,0,U,40384,999,4114,0,-.275E-5,0
ABS-3A,2015-010A,2026-07-02T17:23:23.076096,1.00269263,.0001605,0.0422,62.0892,349.0193,127.5185,0,U,40424,999,4153,0,0,0
EUTELSAT 115 WEST B,2015-010B,2026-07-02T15:08:51.639936,1.00274403,.0000186,0.0049,195.2860,57.4934,140.1926,0,U,40425,999,4153,0,-.15E-6,0
EXPRESS-AM7,2015-012A,2026-07-02T18:12:18.065088,1.00272087,.0003162,0.0175,38.2509,69.8662,125.7334,0,U,40505,999,4116,0,.161E-5,0
BEIDOU-3S IGSO-1S,2015-019A,2026-07-02T17:55:43.136256,1.00248556,.0039341,49.1658,295.2758,192.3032,152.1200,0,U,40549,999,4122,0,-.143E-5,0
THOR 7,2015-022A,2026-07-02T17:24:00.514944,1.00273521,.0002534,0.0459,214.6218,243.7289,82.7662,0,U,40613,999,4097,0,.3E-7,0
TURKMENALEM52E/MONACOSAT,2015-023A,2026-07-02T18:26:34.302048,1.00271937,.0002927,0.0358,79.9835,14.7638,154.7080,0,U,40617,999,4100,0,.115E-5,0
DIRECTV 15,2015-026A,2026-07-02T16:54:47.504736,1.00269039,.0000484,0.0175,66.4844,341.1134,23.9506,0,U,40663,999,4061,0,-.91E-6,0
SKY MEXICO-1,2015-026B,2026-07-02T13:36:28.195200,1.00273686,.000255,0.0178,34.8991,81.6332,289.3882,0,U,40664,999,4060,0,-.224E-5,0
METEOSAT-11 (MSG-4),2015-034A,2026-07-02T19:09:37.241280,1.00267972,.0002235,3.2395,71.0127,349.1023,157.4441,0,U,40732,999,737,0,.71E-6,0
STAR ONE C4,2015-034B,2026-07-01T11:59:08.988576,1.00269317,.00020315,0.0209,356.1227,82.6474,310.5523,0,U,40733,999,4015,0,-.254E-5,0
WGS F7 (USA 263),2015-036A,2026-07-02T18:14:08.093760,1.00271953,.0000733,0.0425,62.7431,142.1999,164.3698,0,U,40746,999,4002,0,0,0
INTELSAT 34 (IS-34),2015-039A,2026-07-02T13:42:57.573216,1.00269667,.0000469,0.0108,13.9056,22.0921,34.8455,0,U,40874,999,3978,0,-.275E-5,0
EUTELSAT 8 WEST B,2015-039B,2026-07-02T17:22:00.708384,1.00272152,.0003746,0.0639,346.5624,109.5778,77.1200,0,U,40875,999,3981,0,-.55E-6,0
GSAT-6,2015-041A,2026-07-02T19:30:25.735968,1.00269897,.0003108,1.9587,82.4002,10.9514,202.5984,0,U,40880,999,3975,0,-.15E-5,0
INMARSAT 5-F3,2015-042A,2026-07-02T18:15:30.464064,1.00270910,.0000479,0.0186,26.7442,88.4954,259.0250,0,U,40882,999,3972,0,.61E-6,0
MUOS-4,2015-044A,2026-07-02T20:52:23.603232,1.00272145,.0057356,4.3574,42.3253,3.3043,263.3616,0,U,40887,999,3971,0,-.84E-6,0
TJS-1,2015-046A,2026-07-02T21:50:31.330176,1.00269814,.0005817,0.3616,84.8720,9.9165,308.7827,0,U,40892,999,3972,0,-.146E-5,0
EXPRESS-AM8,2015-048A,2026-07-01T10:32:24.620640,1.00272118,.00003674,0.0215,295.4343,105.0275,23.1281,0,U,40895,999,3948,0,-.101E-5,0
BEIDOU-3S IGSO-2S,2015-053A,2026-07-02T16:08:35.901600,1.00256360,.0065697,49.1969,258.5980,193.2584,165.2618,0,U,40938,999,3950,0,-.96E-6,0
SKY MUSTER 1 (NBN1A),2015-054A,2026-07-02T19:46:54.158016,1.00271967,.0002068,0.0201,2.5459,93.9809,261.2984,0,U,40940,999,3941,0,0,0
ARSAT 2,2015-054B,2026-07-02T13:35:50.753760,1.00270617,.0002148,0.0327,295.0447,159.7913,308.7263,0,U,40941,999,3945,0,-.214E-5,0
MORELOS 3,2015-056A,2026-07-02T16:51:55.281024,1.00270758,.0000453,3.1998,15.4752,23.8792,21.2659,0,U,40946,999,3944,0,-.33E-6,0
APSTAR-9,2015-059A,2026-07-02T21:42:28.012032,1.00271759,.0002962,0.0201,333.7198,205.1715,209.6813,0,U,40982,999,3927,0,-.255E-5,0
TURKSAT 4B,2015-060A,2026-07-02T20:15:44.959968,1.00276944,.000226,0.0247,288.1552,170.2766,176.3830,0,U,40984,999,3925,0,.125E-5,0
ZHONGXING-2C,2015-063A,2026-07-02T21:19:06.103776,1.00271641,.0007838,0.3128,89.1092,95.4713,159.5770,0,U,41021,999,3913,0,-.313E-5,0
GSAT-15,2015-065A,2026-07-02T16:59:36.073824,1.00270279,.000444,0.0419,250.8690,191.0709,187.1953,0,U,41028,999,3895,0,-.247E-5,0
BADR-7 (ARABSAT-6B),2015-065B,2026-07-02T20:28:07.791744,1.00269108,.0004139,0.0505,218.1573,340.7950,54.9749,0,U,41029,999,3892,0,.155E-5,0
