YAMAL 401               
1 40345U 14082A   26183.88559564  .00000000  00000+0  00000+0 0  9999
2 40345   0.0147  40.9520 0000530  42.3804 246.3476  1.00270681 42079
ASTRA 2G                
1 40364U 14089A   26183.85509014  .00000161  00000+0  00000+0 0  9997
2 40364   0.0458 351.2409 0004949  82.0414 183.6431  1.00270220 42124
FENGYUN 2G              
1 40367U 14090A   26183.87911138 -.00000293  00000+0  00000+0 0  9995
2 40367   5.6767  72.6316 0003609 150.3036 114.0182  1.00266634 42151
MUOS-3                  
1 40374U 15002A   26183.79334958 -.00000120  00000+0  00000+0 0  9996
2 40374   4.5502  43.5870 0052796 177.6484 329.7127  1.00270501 41742
INMARSAT 5-F2           
1 40384U 15005A   26183.42909796 -.00000275  00000+0  00000+0 0  9999
2 40384   0.0184  20.4389 0000621  74.6010 284.8989  1.00275452 41141
ABS-3A                  
1 40424U 15010A   26183.72457264  .00000000  00000+0  00000+0 0  9996
2 40424   0.0422  62.0892 0001605 349.0193 127.5185  1.00269263 41533
EUTELSAT 115 WEST B     
1 40425U 15010B   26183.63115324 -.00000015  00000+0  00000+0 0  9992
2 40425   0.0049 195.2860 0000186  57.4934 140.1926  1.00274403 41535
EXPRESS-AM7             
1 40505U 15012A   26183.75854242  .00000161  00000+0  00000+0 0  9996
2 40505   0.0175  38.2509 0003162  69.8662 125.7334  1.00272087 41169
BEIDOU-3S IGSO-1S       
1 40549U 15019A   26183.74702704 -.00000143  00000+0  00000+0 0  9996
2 40549  49.1658 295.2758 0039341 192.3032 152.1200  1.00248556 41226
THOR 7                  
1 40613U 15022A   26183.72500596  .00000003  00000+0  00000+0 0  9999
2 40613   0.0459 214.6218 0002534 243.7289  82.7662  1.00273521 40979
TURKMENALEM52E/MONACOSAT
1 40617U 15023A   26183.76845257  .00000115  00000+0  00000+0 0  9998
2 40617   0.0358  79.9835 0002927  14.7638 154.7080  1.00271937 41006
DIRECTV 15              
1 40663U 15026A   26183.70471649 -.00000091  00000+0  00000+0 0  9990
2 40663   0.0175  66.4844 0000484 341.1134  23.9506  1.00269039 40615
SKY MEXICO-1            
1 40664U 15026B   26183.56699300 -.00000224  00000+0  00000+0 0  9999
2 40664   0.0178  34.8991 0002550  81.6332 289.3882  1.00273686 40600
METEOSAT-11 (MSG-4)     
1 40732U 15034A   26183.79834770  .00000071  00000+0  00000+0 0  9990
2 40732   3.2395  71.0127 0002235 349.1023 157.4441  1.00267972  7379
STAR ONE C4             
1 40733U 15034B   26182.49940959 -.00000254  00000+0  00000+0 0  9998
2 40733   0.0209 356.1227 0002031  82.6474 310.5523  1.00269317 40151
WGS F7 (USA 263)        
1 40746U 15036A   26183.75981590  .00000000  00000+0  00000+0 0  9998
2 40746   0.0425  62.7431 0000733 142.1999 164.3698  1.00271953 40026
INTELSAT 34 (IS-34)     
1 40874U 15039A   26183.57149969 -.00000275  00000+0  00000+0 0  9994
2 40874   0.0108  13.9056 0000469  22.0921  34.8455  1.00269667 39786
EUTELSAT 8 WEST B       
1 40875U 15039B   26183.72361931 -.00000055  00000+0  00000+0 0  9993
2 40875   0.0639 346.5624 0003746 109.5778  77.1200  1.00272152 39819
GSAT-6                  
1 40880U 15041A   26183.81279787 -.00000150  00000+0  00000+0 0  9995
2 40880   1.9587  82.4002 0003108  10.9514 202.5984  1.00269897 39756
INMARSAT 5-F3           
1 40882U 15042A   26183.76076926  .00000061  00000+0  00000+0 0  9992
2 40882   0.0186  26.7442 0000479  88.4954 259.0250  1.00270910 39726
MUOS-4                  
1 40887U 15044A   26183.86971763 -.00000084  00000+0  00000+0 0  9999
2 40887   4.3574  42.3253 0057356   3.3043 263.3616  1.00272145 39719
TJS-1                   
1 40892U 15046A   26183.91008484 -.00000146  00000+0  00000+0 0  9993
2 40892   0.3616  84.8720 0005817   9.9165 308.7827  1.00269814 39728
EXPRESS-AM8             
1 40895U 15048A   26182.43917385 -.00000101  00000+0  00000+0 0  9994
2 40895   0.0215 295.4343 0000367 105.0275  23.1281  1.00272118 39485
BEIDOU-3S IGSO-2S       
1 40938U 15053A   26183.67263775 -.00000096  00000+0  00000+0 0  9995
2 40938  49.1969 258.5980 0065697 193.2584 165.2618  1.00256360 39505
SKY MUSTER 1 (NBN1A)    
1 40940U 15054A   26183.82423794  .00000000  00000+0  00000+0 0  9999
2 40940   0.0201   2.5459 0002068  93.9809 261.2984  1.00271967 39413
ARSAT 2                 
1 40941U 15054B   26183.56655965 -.00000214  00000+0  00000+0 0  9996
2 40941   0.0327 295.0447 0002148 159.7913 308.7263  1.00270617 39457
MORELOS 3               
1 40946U 15056A   26183.70272316 -.00000033  00000+0  00000+0 0  9993
2 40946   3.1998  15.4752 0000453  23.8792  21.2659  1.00270758 39447
APSTAR-9                
1 40982U 15059A   26183.90449088 -.00000255  00000+0  00000+0 0  9996
2 40982   0.0201 333.7198 0002962 205.1715 209.6813  1.00271759 39274
TURKSAT 4B              
1 40984U 15060A   26183.84427037  .00000125  00000+0  00000+0 0  9998
2 40984   0.0247 288.1552 0002260 170.2766 176.3830  1.00276944 39250
ZHONGXING-2C            
1 41021U 15063A   26183.88826509 -.00000313  00000+0  00000+0 0  9995
2 41021   0.3128  89.1092 0007838  95.4713 159.5770  1.00271641 39130
GSAT-15                 
1 41028U 15065A   26183.70805641 -.00000247  00000+0  00000+0 0  9995
2 41028   0.0419 250.8690 0004440 191.0709 187.1953  1.00270279 38957
BADR-7 (ARABSAT-6B)     
1 41029U 15065B   26183.85286796  .00000155  00000+0  00000+0 0  9993
2 41029   0.0505 218.1573 0004139 340.7950  54.9749  1.00269108 38927
